STARLINK-31732          
1 60099U 24117J   26068.17909809 -.00000644  00000+0 -96149-5 0  9993
2 60099  53.1616  39.1116 0001416  78.7129 281.4030 15.30189924 96819
TRANSPORTER-12 OBJECT AZ
1 62656U 25009AZ  26068.71026235  .00016057  00000+0  54903-3 0  9991
2 62656  97.3981 151.9913 0000987  45.3581 314.7740 15.30349724 63792
